NORAD_CAT_ID,OBJECT_NAME,OBJECT_TYPE,EPOCH,MEAN_MOTION,ECCENTRICITY,INCLINATION,RA_OF_ASC_NODE,ARG_OF_PERICENTER,MEAN_ANOMALY,BSTAR,MEAN_MOTION_DOT,MEAN_MOTION_DDOT,TLE_LINE0,TLE_LINE1,TLE_LINE2,SEMIMAJOR_AXIS,PERIOD,APOGEE,PERIGEE,DECAYED
51104.0,STARLINK-3366,PAYLOAD,2022-03-08 14:00:01,15.732129,0.0003267,53.2173,34.2831,9.4282,148.0048,0.0001494,0.00020412,0.0,0 STARLINK-3366,1 51104U 22005A   22067.58334491  .00020412  00000-0  14940-3 0  9994,2 51104  53.2173  34.2831 0003267   9.4282 148.0048 15.73212900  3691,6727.858,91.532,351.921,347.525,0.0
51104.0,STARLINK-3366,PAYLOAD,2022-03-08 20:00:01,15.7320859,0.0003067,53.2173,33.045,11.0401,123.0997,0.00057687,0.00081168,0.0,0 STARLINK-3366,1 51104U 22005A   22067.83334491  .00081168  00000-0  57687-3 0  9992,2 51104  53.2173  33.0450 0003067  11.0401 123.0997 15.73208590  8999,6727.871,91.533,351.7990000000001,347.672,0.0
51104.0,STARLINK-3366,PAYLOAD,2022-03-08 22:00:00,15.73253227,0.0003042,53.2175,32.6329,10.8445,235.5232,5.3844e-05,6.958e-05,0.0,0 STARLINK-3366,1 51104U 22005A   22067.91667824  .00006958  00000-0  53844-4 0  9996,2 51104  53.2175  32.6329 0003042  10.8445 235.5232 15.73253227  3712,6727.743,91.53,351.655,347.56199999999984,0.0
51104.0,STARLINK-3366,PAYLOAD,2022-03-09 06:00:00,15.73239745,0.000332,53.2174,30.9854,10.8596,324.5104,-0.00048647,-0.00068482,0.0,0 STARLINK-3366,1 51104U 22005A   22068.25001157 -.00068482  00000-0 -48647-3 0  9991,2 51104  53.2174  30.9854 0003320  10.8596 324.5104 15.73239745  9061,6727.781999999997,91.531,351.88,347.413,0.0
51104.0,STARLINK-3366,PAYLOAD,2022-03-09 14:00:01,15.73191616,0.0003219,53.2175,29.3346,12.1866,52.1284,0.00017092,0.00023428,0.0,0 STARLINK-3366,1 51104U 22005A   22068.58334491  .00023428  00000-0  17092-3 0  9996,2 51104  53.2175  29.3346 0003219  12.1866  52.1284 15.73191616  3692,6727.919,91.534,351.95,347.61800000000005,0.0
51104.0,STARLINK-3366,PAYLOAD,2022-03-09 22:00:01,15.73250273,0.0003078,53.2179,27.6843,13.9328,139.3677,-0.00035606,-0.00050416,0.0,0 STARLINK-3366,1 51104U 22005A   22068.91668981 -.00050416  00000-0 -35606-3 0  9997,2 51104  53.2179  27.6843 0003078  13.9328 139.3677 15.73250273  9161,6727.752,91.53,351.68800000000016,347.546,0.0
51104.0,STARLINK-3366,PAYLOAD,2022-03-10 14:00:01,15.73195287,0.0003118,53.2175,24.386,8.9659,322.1828,9.6362e-05,0.00012922,0.0,0 STARLINK-3366,1 51104U 22005A   22069.58334491  .00012922  00000-0  96362-4 0  9992,2 51104  53.2175  24.3860 0003118   8.9659 322.1828 15.73195287  3691,6727.909000000002,91.533,351.871,347.676,0.0
51104.0,STARLINK-3366,PAYLOAD,2022-03-10 20:00:01,15.73193765,0.0002993,53.2173,23.148000000000003,8.5961,299.2423,0.00057046,0.00080198,0.0,0 STARLINK-3366,1 51104U 22005A   22069.83334491  .00080198  00000-0  57046-3 0  9995,2 51104  53.2173  23.1480 0002993   8.5961 299.2423 15.73193765  9315,6727.913000000001,91.534,351.792,347.764,0.0
51104.0,STARLINK-3366,PAYLOAD,2022-03-10 22:00:01,15.73236207,0.0003016,53.2171,22.7362,8.8205,51.3077,7.7116e-05,0.00010232,0.0,0 STARLINK-3366,1 51104U 22005A   22069.91668981  .00010232  00000-0  77116-4 0  9991,2 51104  53.2171  22.7362 0003016   8.8205  51.3077 15.73236207  3706,6727.792,91.531,351.686,347.62800000000016,0.0
51104.0,STARLINK-3366,PAYLOAD,2022-03-11 04:00:00,15.7325118,0.0003155,53.2164,21.5007,6.8298,29.9735,-0.00033485,-0.00047469,0.0,0 STARLINK-3366,1 51104U 22005A   22070.16667824 -.00047469  00000-0 -33485-3 0  9999,2 51104  53.2164  21.5007 0003155   6.8298  29.9735 15.73251180  9362,6727.749,91.53,351.737,347.492,0.0
51104.0,STARLINK-3366,PAYLOAD,2022-03-11 12:00:00,15.73276858,0.0003141,53.2156,19.8502,7.009,118.7629,-0.00024243,-0.00034629,0.0,0 STARLINK-3366,1 51104U 22005A   22070.50001157 -.00034629  00000-0 -24243-3 0  9994,2 51104  53.2156  19.8502 0003141   7.0090 118.7629 15.73276858  9415,6727.676,91.529,351.654,347.42800000000005,0.0
51104.0,STARLINK-3366,PAYLOAD,2022-03-11 14:00:01,15.73285288,0.0003047,53.2156,19.4373,7.8679999999999986,230.1528,-0.0004085,-0.00057786,0.0,0 STARLINK-3366,1 51104U 22005A   22070.58334491 -.00057786  00000-0 -40850-3 0  9993,2 51104  53.2156  19.4373 0003047   7.8680 230.1528 15.73285288  3671,6727.651999999999,91.528,351.56699999999995,347.467,0.0
51104.0,STARLINK-3366,PAYLOAD,2022-03-11 20:00:01,15.73201275,0.0002955,53.2175,18.1992,10.7397,204.0079,0.00012338,0.00016732,0.0,0 STARLINK-3366,1 51104U 22005A   22070.83334491  .00016732  00000-0  12338-3 0  9995,2 51104  53.2175  18.1992 0002955  10.7397 204.0079 15.73201275  9479,6727.892,91.533,351.745,347.76800000000014,0.0
51104.0,STARLINK-3366,PAYLOAD,2022-03-11 22:00:00,15.73239437,0.000301,53.2174,17.7874,10.7515,316.222,-0.00031618,-0.00044847,0.0,0 STARLINK-3366,1 51104U 22005A   22070.91667824 -.00044847  00000-0 -31618-3 0  9995,2 51104  53.2174  17.7874 0003010  10.7515 316.2220 15.73239437  3678,6727.783,91.531,351.673,347.62300000000016,0.0
51104.0,STARLINK-3366,PAYLOAD,2022-03-12 14:00:01,15.73267798,0.0003041,53.2156,14.4885,11.3988,133.4787,-0.0004039,-0.00057104,0.0,0 STARLINK-3366,1 51104U 22005A   22071.58334491 -.00057104  00000-0 -40390-3 0  9997,2 51104  53.2156  14.4885 0003041  11.3988 133.4787 15.73267798  3699,6727.7019999999975,91.529,351.61300000000006,347.521,0.0
51104.0,STARLINK-3366,PAYLOAD,2022-03-12 22:00:00,15.732423999999998,0.0002953,53.2155,12.839,12.8703,220.9781,-0.0003776,-0.00053391,0.0,0 STARLINK-3366,1 51104U 22005A   22071.91667824 -.00053391  00000-0 -37760-3 0  9994,2 51104  53.2155  12.8390 0002953  12.8703 220.9781 15.73242400  9643,6727.774,91.531,351.626,347.653,0.0
51104.0,STARLINK-3366,PAYLOAD,2022-03-13 14:00:01,15.73161888,0.0002983,53.2155,9.5398,12.6527,39.0183,-0.00028642,-0.00040571,0.0,0 STARLINK-3366,1 51104U 22005A   22072.58334491 -.00040571  00000-0 -28642-3 0  9994,2 51104  53.2155   9.5398 0002983  12.6527  39.0183 15.73161888  9745,6728.004,91.535,351.876,347.862,0.0
51104.0,STARLINK-3366,PAYLOAD,2022-03-13 20:00:01,15.73238195,0.0002979,53.2158,8.2936,13.3614,14.9962,-0.0002046,-0.00029291,0.0,0 STARLINK-3366,1 51104U 22005A   22072.83334491 -.00029291  00000-0 -20460-3 0  9998,2 51104  53.2158   8.2936 0002979  13.3614  14.9962 15.73238195  9789,6727.786,91.531,351.655,347.647,0.0
51104.0,STARLINK-3366,PAYLOAD,2022-03-13 22:00:01,15.73398916,0.0002936,53.2161,7.8795,17.4832,123.1454,-0.0032438,-0.00436929,0.0,0 STARLINK-3366,1 51104U 22005A   22072.91668981 -.00436929  00000-0 -32438-2 0  9998,2 51104  53.2161   7.8795 0002936  17.4832 123.1454 15.73398916  3692,6727.328,91.522,351.168,347.218,0.0
51104.0,STARLINK-3366,PAYLOAD,2022-03-14 04:00:00,15.73196146,0.000312,53.2158,6.6545,9.7882,107.5622,0.00064964,0.00091551,0.0,0 STARLINK-3366,1 51104U 22005A   22073.16667824  .00091551  00000-0  64964-3 0  9997,2 51104  53.2158   6.6545 0003120   9.7882 107.5622 15.73196146  9839,6727.906,91.533,351.87,347.672,0.0
51104.0,STARLINK-3366,PAYLOAD,2022-03-14 14:00:01,15.73298397,0.0002901,53.2157,4.5907,11.5038,307.1526,5.156e-05,6.65e-05,0.0,0 STARLINK-3366,1 51104U 22005A   22073.58335648  .00006650  00000-0  51560-4 0  9994,2 51104  53.2157   4.5907 0002901  11.5038 307.1526 15.73298397  3686,6727.615,91.527,351.431,347.528,0.0
51104.0,STARLINK-3366,PAYLOAD,2022-03-14 20:00:01,15.73306543,0.0002829,53.2157,3.3533,14.1162,281.2437,0.00017625,0.00024301,0.0,0 STARLINK-3366,1 51104U 22005A   22073.83334491  .00024301  00000-0  17625-3 0  9993,2 51104  53.2157   3.3533 0002829  14.1162 281.2437 15.73306543  9945,6727.590999999999,91.527,351.36,347.55300000000005,0.0
51104.0,STARLINK-3366,PAYLOAD,2022-03-14 22:00:00,15.73348755,0.0002929,53.2157,2.9415,14.3869,33.2266,-0.00046083,-0.00065226,0.0,0 STARLINK-3366,1 51104U 22005A   22073.91667824 -.00065226  00000-0 -46083-3 0  9994,2 51104  53.2157   2.9415 0002929  14.3869  33.2266 15.73348755  9953,6727.471,91.525,351.307,347.366,0.0
51104.0,STARLINK-3366,PAYLOAD,2022-03-15 02:00:01,15.73369785,0.0003102,53.2152,2.1151,16.0925,256.0615,-0.0013841,-0.00191968,0.0,0 STARLINK-3366,1 51104U 22005A   22074.08334491 -.00191968  00000-0 -13841-2 0  9992,2 51104  53.2152   2.1151 0003102  16.0925 256.0615 15.73369785  9985,6727.411,91.523,351.36300000000006,347.189,0.0
51104.0,STARLINK-3366,PAYLOAD,2022-03-15 20:00:01,15.729274599999998,0.000288,53.2159,358.4049,12.6592,189.4083,0.0012465,0.00175982,0.0,0 STARLINK-3366,1 51104U 22005A   22074.83334491  .00175982  00000-0  12465-2 0  9992,2 51104  53.2159 358.4049 0002880  12.6592 189.4083 15.72927460 10102,6728.672,91.549,352.475,348.599,0.0
51104.0,STARLINK-3366,PAYLOAD,2022-03-15 22:00:00,15.72954456,0.0002954,53.2159,357.9933,12.3393,301.8835,0.0012537,0.00177235,0.0,0 STARLINK-3366,1 51104U 22005A   22074.91667824  .00177235  00000-0  12537-2 0  9993,2 51104  53.2159 357.9933 0002954  12.3393 301.8835 15.72954456  3681,6728.595,91.547,352.4480000000001,348.473,0.0
51104.0,STARLINK-3366,PAYLOAD,2022-03-16 12:00:00,15.73168113,0.000296,53.2158,355.1072,9.8927,9.6739,0.0002837,0.00039333,0.0,0 STARLINK-3366,1 51104U 22005A   22075.50001157  .00039333  00000-0  28370-3 0  9999,2 51104  53.2158 355.1072 0002960   9.8927   9.6739 15.73168113 10205,6727.986,91.535,351.843,347.86,0.0
51104.0,STARLINK-3366,PAYLOAD,2022-03-16 14:00:01,15.73154971,0.0002904,53.2157,354.6945,9.5335,122.2628,0.00061255,0.00086077,0.0,0 STARLINK-3366,1 51104U 22005A   22075.58334491  .00086077  00000-0  61255-3 0  9993,2 51104  53.2157 354.6945 0002904   9.5335 122.2628 15.73154971  3685,6728.024,91.536,351.842,347.935,0.0
51104.0,STARLINK-3366,PAYLOAD,2022-03-16 20:00:01,15.73212344,0.0002888,53.2158,353.4576,12.1695,96.2951,0.00028798,0.00040015,0.0,0 STARLINK-3366,1 51104U 22005A   22075.83334491  .00040015  00000-0  28798-3 0  9998,2 51104  53.2158 353.4576 0002888  12.1695  96.2951 15.73212344  3681,6727.86,91.532,351.668,347.782,0.0
